NORAD_CAT_ID,OBJECT_NAME,OBJECT_TYPE,EPOCH,MEAN_MOTION,ECCENTRICITY,INCLINATION,RA_OF_ASC_NODE,ARG_OF_PERICENTER,MEAN_ANOMALY,BSTAR,MEAN_MOTION_DOT,MEAN_MOTION_DDOT,TLE_LINE0,TLE_LINE1,TLE_LINE2,SEMIMAJOR_AXIS,PERIOD,APOGEE,PERIGEE,DECAYED
55291.0,STARLINK-5327,PAYLOAD,2023-11-15 13:03:54,14.98331396,0.0002337,70.0001,355.4089,274.2205,85.8687,-7.2126e-06,-1.79e-06,0.0,0 STARLINK-5327,1 55291U 23010Y   23319.54437874 -.00000179  00000-0 -72126-5 0  9990,2 55291  70.0001 355.4089 0002337 274.2205  85.8687 14.98331396 46675,6950.189,96.107,573.678,570.429,0.0
55291.0,STARLINK-5327,PAYLOAD,2023-11-15 19:28:26,14.98347919,0.0002674,69.9999,354.735,275.0518,85.0336,-0.00033902,-4.138e-05,0.0,0 STARLINK-5327,1 55291U 23010Y   23319.81141432 -.00004138  00000-0 -33902-3 0  9998,2 55291  69.9999 354.7350 0002674 275.0518  85.0336 14.98347919 46403,6950.137,96.106,573.861,570.144,0.0
55291.0,STARLINK-5327,PAYLOAD,2023-11-16 01:53:00,14.9831146,0.0001765,70.0018,354.0639,257.0598,103.0363,-0.00036748,-4.472e-05,0.0,0 STARLINK-5327,1 55291U 23010Y   23320.07847979 -.00004472  00000-0 -36748-3 0  9999,2 55291  70.0018 354.0639 0001765 257.0598 103.0363 14.98311460 46446,6950.25,96.108,573.342,570.889,0.0
55291.0,STARLINK-5327,PAYLOAD,2023-11-16 08:17:34,14.98283892,0.0002552,70.0024,353.3913,220.7451,139.3518,-0.00069857,-8.408e-05,0.0,0 STARLINK-5327,1 55291U 23010Y   23320.34554239 -.00008408  00000-0 -69857-3 0  9993,2 55291  70.0024 353.3913 0002552 220.7451 139.3518 14.98283892 46485,6950.335,96.11,573.974,570.427,0.0
55291.0,STARLINK-5327,PAYLOAD,2023-11-16 17:54:19,14.98332468,0.0002555,70.0025,352.3806,273.6672,86.4195,0.00020539,2.359e-05,0.0,0 STARLINK-5327,1 55291U 23010Y   23320.74605326  .00002359  00000-0  20539-3 0  9992,2 55291  70.0025 352.3806 0002555 273.6672  86.4195 14.98332468 46545,6950.185,96.107,573.826,570.274,0.0
55291.0,STARLINK-5327,PAYLOAD,2023-11-16 19:30:27,14.98369859,0.0002586,70.0025,352.2116,274.6815,85.4049,-0.00094212,-0.00011327,0.0,0 STARLINK-5327,1 55291U 23010Y   23320.81281401 -.00011327  00000-0 -94212-3 0  9990,2 55291  70.0025 352.2116 0002586 274.6815  85.4049 14.98369859 46868,6950.07,96.104,573.732,570.137,0.0
55291.0,STARLINK-5327,PAYLOAD,2023-11-17 01:55:01,14.98284671,0.0001931,70.0028,351.5386,268.3246,91.7692,0.00058047,6.832e-05,0.0,0 STARLINK-5327,1 55291U 23010Y   23321.07987492  .00006832  00000-0  58047-3 0  9991,2 55291  70.0028 351.5386 0001931 268.3246  91.7692 14.98284671 46595,6950.333,96.11,573.54,570.856,0.0
55291.0,STARLINK-5327,PAYLOAD,2023-11-17 11:31:50,14.98299993,0.0002305,70.0,350.5276,265.016,95.0736,-0.00027307,-3.347e-05,0.0,0 STARLINK-5327,1 55291U 23010Y   23321.48044518 -.00003347  00000-0 -27307-3 0  9994,2 55291  70.0000 350.5276 0002305 265.0160  95.0736 14.98299993 46967,6950.286,96.109,573.753,570.549,0.0
55291.0,STARLINK-5327,PAYLOAD,2023-11-18 03:33:08,14.98329266,0.0002831,69.999,348.8438,272.1583,87.9252,2.7415e-05,2.34e-06,0.0,0 STARLINK-5327,1 55291U 23010Y   23322.14801980  .00000234  00000-0  27415-4 0  9993,2 55291  69.9990 348.8438 0002831 272.1583  87.9252 14.98329266 46751,6950.195,96.107,574.028,570.093,0.0
55291.0,STARLINK-5327,PAYLOAD,2023-11-18 11:33:49,14.98329073,0.0002693,69.9994,348.0018,259.8245,100.2611,3.8268e-05,3.64e-06,0.0,0 STARLINK-5327,1 55291U 23010Y   23322.48181898  .00000364  00000-0  38268-4 0  9991,2 55291  69.9994 348.0018 0002693 259.8245 100.2611 14.98329073 47119,6950.196,96.107,573.932,570.189,0.0
55291.0,STARLINK-5327,PAYLOAD,2023-11-18 19:34:29,14.98333818,0.0003059,70.0002,347.1598,269.2546,90.8263,-3.8324e-05,-5.5e-06,0.0,0 STARLINK-5327,1 55291U 23010Y   23322.81561760 -.00000550  00000-0 -38324-4 0  9990,2 55291  70.0002 347.1598 0003059 269.2546  90.8263 14.98333818 47165,6950.181,96.107,574.172,569.92,0.0
55291.0,STARLINK-5327,PAYLOAD,2023-11-19 03:35:09,14.98328137,0.000295,69.9989,346.3184,269.8332,90.2489,5.8854e-05,6.09e-06,0.0,0 STARLINK-5327,1 55291U 23010Y   23323.14941854  .00000609  00000-0  58854-4 0  9996,2 55291  69.9989 346.3184 0002950 269.8332  90.2489 14.98328137 46909,6950.199,96.107,574.114,570.013,0.0
55291.0,STARLINK-5327,PAYLOAD,2023-11-19 11:35:49,14.98331242,0.0002844,69.9986,345.4766,268.1829,91.9004,5.7808e-05,5.97e-06,0.0,0 STARLINK-5327,1 55291U 23010Y   23323.48321632  .00000597  00000-0  57808-4 0  9993,2 55291  69.9986 345.4766 0002844 268.1829  91.9004 14.98331242 47269,6950.189,96.107,574.031,570.077,0.0
55291.0,STARLINK-5327,PAYLOAD,2023-11-20 03:37:10,14.98332464,0.0002771,69.9988,343.7932,268.8567,91.2275,-7.0259e-06,-1.77e-06,0.0,0 STARLINK-5327,1 55291U 23010Y   23324.15081627 -.00000177  00000-0 -70259-5 0  9997,2 55291  69.9988 343.7932 0002771 268.8567  91.2275 14.98332464 47059,6950.185,96.107,573.976,570.124,0.0
55291.0,STARLINK-5327,PAYLOAD,2023-11-20 11:37:50,14.98333709,0.0002831,69.9987,342.952,269.0859,90.9976,-9.2551e-06,-2.03e-06,0.0,0 STARLINK-5327,1 55291U 23010Y   23324.48461473 -.00000203  00000-0 -92551-5 0  9993,2 55291  69.9987 342.9520 0002831 269.0859  90.9976 14.98333709 47413,6950.181,96.107,574.014,570.079,0.0
55291.0,STARLINK-5327,PAYLOAD,2023-11-21 03:39:11,14.9830259,0.0002522,69.9987,341.2686,267.2736,92.8134,0.00050025,5.877e-05,0.0,0 STARLINK-5327,1 55291U 23010Y   23325.15222179  .00005877  00000-0  50025-3 0  9994,2 55291  69.9987 341.2686 0002522 267.2736  92.8134 14.98302590 47207,6950.278,96.109,573.896,570.39,0.0
55291.0,STARLINK-5327,PAYLOAD,2023-11-21 11:39:50,14.98398313,0.0002461,69.9988,340.4266,256.7455,103.3429,-0.0010889,-0.00013084,0.0,0 STARLINK-5327,1 55291U 23010Y   23325.48599653 -.00013084  00000-0 -10889-2 0  9998,2 55291  69.9988 340.4266 0002461 256.7455 103.3429 14.98398313 47254,6949.982,96.103,573.557,570.136,0.0
55291.0,STARLINK-5327,PAYLOAD,2023-11-22 03:41:12,14.98331409,0.0003002,69.9988,338.7432,278.0005,82.0813,-3.6707e-05,-5.31e-06,0.0,0 STARLINK-5327,1 55291U 23010Y   23326.15361460 -.00000531  00000-0 -36707-4 0  9998,2 55291  69.9988 338.7432 0003002 278.0005  82.0813 14.98331409 47353,6950.189,96.107,574.14,569.967,0.0
55291.0,STARLINK-5327,PAYLOAD,2023-11-22 11:41:52,14.98314906,0.0002166,69.9999,337.9023,274.009,86.0822,0.00025358,2.933e-05,0.0,0 STARLINK-5327,1 55291U 23010Y   23326.48741895  .00002933  00000-0  25358-3 0  9993,2 55291  69.9999 337.9023 0002166 274.0090  86.0822 14.98314906 47719,6950.24,96.108,573.61,570.599,0.0
55291.0,STARLINK-5327,PAYLOAD,2023-11-23 03:43:13,14.98326004,0.0002447,69.9998,336.2184,248.4879,111.6019,-9.5349e-05,-1.23e-05,0.0,0 STARLINK-5327,1 55291U 23010Y   23327.15501810 -.00001230  00000-0 -95349-4 0  9998,2 55291  69.9998 336.2184 0002447 248.4879 111.6019 14.98326004 47502,6950.205,96.107,573.771,570.37,0.0
55291.0,STARLINK-5327,PAYLOAD,2023-11-23 10:07:45,14.98328842,0.0002868,69.9986,335.5443,269.0082,91.0749,-3.0502e-05,-4.57e-06,0.0,0 STARLINK-5327,1 55291U 23010Y   23327.42205515 -.00000457  00000-0 -30502-4 0  9991,2 55291  69.9986 335.5443 0002868 269.0082  91.0749 14.98328842 47852,6950.196,96.107,574.055,570.068,0.0
55291.0,STARLINK-5327,PAYLOAD,2023-11-24 03:45:14,14.98320578,0.0002588,70.0005,333.6954,254.0419,106.0455,-5.055e-05,-6.96e-06,0.0,0 STARLINK-5327,1 55291U 23010Y   23328.15642164 -.00000696  00000-0 -50550-4 0  9997,2 55291  70.0005 333.6954 0002588 254.0419 106.0455 14.98320578 47657,6950.222,96.108,573.886,570.288,0.0
55291.0,STARLINK-5327,PAYLOAD,2023-11-24 10:09:47,14.98321285,0.0002585,70.0,333.0205,263.3455,96.741,-4.6368e-05,-6.46e-06,0.0,0 STARLINK-5327,1 55291U 23010Y   23328.42346178 -.00000646  00000-0 -46368-4 0  9990,2 55291  70.0000 333.0205 0002585 263.3455  96.7410 14.98321285 48007,6950.22,96.108,573.881,570.288,0.0
55291.0,STARLINK-5327,PAYLOAD,2023-11-25 03:47:15,14.98329906,0.0002998,69.9985,331.1666,269.2262,90.8554,7.7529e-05,8.32e-06,0.0,0 STARLINK-5327,1 55291U 23010Y   23329.15781290  .00000832  00000-0  77529-4 0  9997,2 55291  69.9985 331.1666 0002998 269.2262  90.8554 14.98329906 47804,6950.193,96.107,574.142,569.975,0.0
55291.0,STARLINK-5327,PAYLOAD,2023-11-25 10:11:46,14.98337485,0.0002949,69.9985,330.4943,269.1327,90.9494,0.00012572,1.408e-05,0.0,0 STARLINK-5327,1 55291U 23010Y   23329.42484691  .00001408  00000-0  12572-3 0  9998,2 55291  69.9985 330.4943 0002949 269.1327  90.9494 14.98337485 48155,6950.17,96.107,574.084,569.985,0.0
55291.0,STARLINK-5327,PAYLOAD,2023-11-26 02:13:07,14.98331174,0.0002451,70.0,328.8117,263.2343,96.8537,0.00011412,1.269e-05,0.0,0 STARLINK-5327,1 55291U 23010Y   23330.09245004  .00001269  00000-0  11412-3 0  9993,2 55291  70.0000 328.8117 0002451 263.2343  96.8537 14.98331174 47949,6950.189,96.107,573.758,570.351,0.0
55291.0,STARLINK-5327,PAYLOAD,2023-11-26 10:13:47,14.98334938,0.0002393,69.9998,327.9694,258.1318,101.9573,0.00013574,1.527e-05,0.0,0 STARLINK-5327,1 55291U 23010Y   23330.42624569  .00001527  00000-0  13574-3 0  9995,2 55291  69.9998 327.9694 0002393 258.1318 101.9573 14.98334938 48302,6950.178,96.107,573.706,570.379,0.0
55291.0,STARLINK-5327,PAYLOAD,2023-11-27 03:51:18,14.98319774,0.0002583,69.9994,326.1174,269.7708,90.3155,-0.00017893,-2.227e-05,0.0,0 STARLINK-5327,1 55291U 23010Y   23331.16062541 -.00002227  00000-0 -17893-3 0  9991,2 55291  69.9994 326.1174 0002583 269.7708  90.3155 14.98319774 48100,6950.225,96.108,573.885,570.294,0.0
55291.0,STARLINK-5327,PAYLOAD,2023-11-27 10:15:50,14.98339589,0.0002303,69.9985,325.4435,257.0413,103.0489,-0.00054937,-6.643e-05,0.0,0 STARLINK-5327,1 55291U 23010Y   23331.42766272 -.00006643  00000-0 -54937-3 0  9998,2 55291  69.9985 325.4435 0002303 257.0413 103.0489 14.98339589 48147,6950.163,96.106,573.629,570.428,0.0
55291.0,STARLINK-5327,PAYLOAD,2023-11-28 02:17:11,14.98322225,0.0002313,69.9995,323.761,251.8403,108.2504,-0.00010994,-1.404e-05,0.0,0 STARLINK-5327,1 55291U 23010Y   23332.09526775 -.00001404  00000-0 -10994-3 0  9999,2 55291  69.9995 323.7610 0002313 251.8403 108.2504 14.98322225 48241,6950.217,96.107,573.69,570.474,0.0
